{"type": "FeatureCollection", "features": [ {"type": "Feature", "properties": {"norad_id": 32129, "name": "FENGYUN 1C DEB", "group": "fengyun-1c-debris", "lat": -9.003895587143237, "lon": -79.17124248616925, "alt_km": 841.6080744793608, "timestamp": "2025-12-09T23:33:24.140551+00:00", "meta": {"OBJECT_NAME": "FENGYUN 1C DEB", "OBJECT_ID": "1999-025CRX", "EPOCH": "2025-12-09T14:20:29.626368", "MEAN_MOTION": 14.28441804, "ECCENTRICITY": 0.0067897, "INCLINATION": 99.0591, "RA_OF_ASC_NODE": 101.879, "ARG_OF_PERICENTER": 43.3021, "MEAN_ANOMALY": 331.882, "EPHEMERIS_TYPE": 0, "CLASSIFICATION_TYPE": "U", "NORAD_CAT_ID": 32129, "ELEMENT_SET_NO": 999, "REV_AT_EPOCH": 94182, "BSTAR": 0.0032044601, "MEAN_MOTION_DOT": 8.181e-05, "MEAN_MOTION_DDOT": 0}, "tle": {"line1": "1 32129U 99025CRX 25343.59756512  .00008181  00000+0  32045-2 0  9992", "line2": "2 32129  99.0591 101.8790 0067897  43.3021 331.8820 14.28441804941823"}}, "geometry": {"type": "Point", "coordinates": [-79.17124248616925, -9.003895587143237]}}, {"type": "Feature", "properties": {"norad_id": 32130, "name": "FENGYUN 1C DEB", "group": "fengyun-1c-debris", "lat": -35.05732387316003, "lon": 156.70927879697055, "alt_km": 715.4753613813591, "timestamp": "2025-12-09T23:33:24.140563+00:00", "meta": {"OBJECT_NAME": "FENGYUN 1C DEB", "OBJECT_ID": "1999-025CRY", "EPOCH": "2025-12-08T04:17:13.347744", "MEAN_MOTION": 14.37529409, "ECCENTRICITY": 0.00826658, "INCLINATION": 98.9036, "RA_OF_ASC_NODE": 148.5278, "ARG_OF_PERICENTER": 343.691, "MEAN_ANOMALY": 16.1618, "EPHEMERIS_TYPE": 0, "CLASSIFICATION_TYPE": "U", "NORAD_CAT_ID": 32130, "ELEMENT_SET_NO": 999, "REV_AT_EPOCH": 96169, "BSTAR": 0.00073105734, "MEAN_MOTION_DOT": 2.23e-05, "MEAN_MOTION_DDOT": 0}, "tle": {"line1": "1 32130U 99025CRY 25342.17862671  .00002230  00000+0  73106-3 0  9994", "line2": "2 32130  98.9036 148.5278 0082665 343.6910  16.1618 14.37529409961692"}}, "geometry": {"type": "Point", "coordinates": [156.70927879697055, -35.05732387316003]}}, {"type": "Feature", "properties": {"norad_id": 32133, "name": "FENGYUN 1C DEB", "group": "fengyun-1c-debris", "lat": 6.767386434733714, "lon": 166.3357682632329, "alt_km": 822.515881462471, "timestamp": "2025-12-09T23:33:24.140574+00:00", "meta": {"OBJECT_NAME": "FENGYUN 1C DEB", "OBJECT_ID": "1999-025CSB", "EPOCH": "2025-12-09T10:53:35.052288", "MEAN_MOTION": 14.18067625, "ECCENTRICITY": 0.00363834, "INCLINATION": 98.4314, "RA_OF_ASC_NODE": 344.8261, "ARG_OF_PERICENTER": 110.071, "MEAN_ANOMALY": 250.4388, "EPHEMERIS_TYPE": 0, "CLASSIFICATION_TYPE": "U", "NORAD_CAT_ID": 32133, "ELEMENT_SET_NO": 999, "REV_AT_EPOCH": 94928, "BSTAR": 0.00031196375, "MEAN_MOTION_DOT": 6.03e-06, "MEAN_MOTION_DDOT": 0}, "tle": {"line1": "1 32133U 99025CSB 25343.45387792  .00000603  00000+0  31196-3 0  9990", "line2": "2 32133  98.4314 344.8261 0036383 110.0710 250.4388 14.18067625949286"}}, "geometry": {"type": "Point", "coordinates": [166.3357682632329, 6.767386434733714]}}, {"type": "Feature", "properties": {"norad_id": 32134, "name": "FENGYUN 1C DEB", "group": "fengyun-1c-debris", "lat": -7.76836508854553, "lon": -11.575224541025344, "alt_km": 788.8408836391527, "timestamp": "2025-12-09T23:33:24.140584+00:00", "meta": {"OBJECT_NAME": "FENGYUN 1C DEB", "OBJECT_ID": "1999-025CSC", "EPOCH": "2025-12-07T11:31:51.559104", "MEAN_MOTION": 14.2152476, "ECCENTRICITY": 0.02590088, "INCLINATION": 98.594, "RA_OF_ASC_NODE": 344.8046, "ARG_OF_PERICENTER": 278.9279, "MEAN_ANOMALY": 238.3835, "EPHEMERIS_TYPE": 0, "CLASSIFICATION_TYPE": "U", "NORAD_CAT_ID": 32134, "ELEMENT_SET_NO": 999, "REV_AT_EPOCH": 95072, "BSTAR": 0.001182529, "MEAN_MOTION_DOT": 3.592e-05, "MEAN_MOTION_DDOT": 0}, "tle": {"line1": "1 32134U 99025CSC 25341.48045786  .00003592  00000+0  11825-2 0  9992", "line2": "2 32134  98.5940 344.8046 0259008 278.9279 238.3835 14.21524760950724"}}, "geometry": {"type": "Point", "coordinates": [-11.575224541025344, -7.76836508854553]}}, {"type": "Feature", "properties": {"norad_id": 32137, "name": "FENGYUN 1C DEB", "group": "fengyun-1c-debris", "lat": -71.71003965950823, "lon": -95.62745177813113, "alt_km": 745.3696548453718, "timestamp": "2025-12-09T23:33:24.140594+00:00", "meta": {"OBJECT_NAME": "FENGYUN 1C DEB", "OBJECT_ID": "1999-025CSF", "EPOCH": "2025-12-06T14:58:18.861024", "MEAN_MOTION": 14.81103576, "ECCENTRICITY": 0.01882049, "INCLINATION": 98.4431, "RA_OF_ASC_NODE": 107.5404, "ARG_OF_PERICENTER": 53.6795, "MEAN_ANOMALY": 308.1629, "EPHEMERIS_TYPE": 0, "CLASSIFICATION_TYPE": "U", "NORAD_CAT_ID": 32137, "ELEMENT_SET_NO": 999, "REV_AT_EPOCH": 66640, "BSTAR": 0.0012837364, "MEAN_MOTION_DOT": 0.00013499, "MEAN_MOTION_DDOT": 0}, "tle": {"line1": "1 32137U 99025CSF 25340.62382941  .00013499  00000+0  12837-2 0  9998", "line2": "2 32137  98.4431 107.5404 0188204  53.6795 308.1629 14.81103576666403"}}, "geometry": {"type": "Point", "coordinates": [-95.62745177813113, -71.71003965950823]}}, {"type": "Feature", "properties": {"norad_id": 32141, "name": "FENGYUN 1C DEB", "group": "fengyun-1c-debris", "lat": -70.09820434407443, "lon": 11.642483243041633, "alt_km": 872.0654936608989, "timestamp": "2025-12-09T23:33:24.140604+00:00", "meta": {"OBJECT_NAME": "FENGYUN 1C DEB", "OBJECT_ID": "1999-025CSK", "EPOCH": "2025-11-20T23:04:46.058016", "MEAN_MOTION": 14.03501767, "ECCENTRICITY": 0.00731678, "INCLINATION": 98.7436, "RA_OF_ASC_NODE": 328.1999, "ARG_OF_PERICENTER": 269.2169, "MEAN_ANOMALY": 90.0615, "EPHEMERIS_TYPE": 0, "CLASSIFICATION_TYPE": "U", "NORAD_CAT_ID": 32141, "ELEMENT_SET_NO": 999, "REV_AT_EPOCH": 94638, "BSTAR": 0.00056632309, "MEAN_MOTION_DOT": 8.66e-06, "MEAN_MOTION_DDOT": 0}, "tle": {"line1": "1 32141U 99025CSK 25324.96164419  .00000866  00000+0  56632-3 0  9996", "line2": "2 32141  98.7436 328.1999 0073167 269.2169  90.0615 14.03501767946385"}}, "geometry": {"type": "Point", "coordinates": [11.642483243041633, -70.09820434407443]}}, {"type": "Feature", "properties": {"norad_id": 32143, "name": "FENGYUN 1C DEB", "group": "fengyun-1c-debris", "lat": 70.31918135305972, "lon": 166.0216932981992, "alt_km": 751.1678650531658, "timestamp": "2025-12-09T23:33:24.140615+00:00", "meta": {"OBJECT_NAME": "FENGYUN 1C DEB", "OBJECT_ID": "1999-025CSM", "EPOCH": "2025-12-03T04:28:30.343584", "MEAN_MOTION": 14.17959367, "ECCENTRICITY": 0.01041232, "INCLINATION": 98.5963, "RA_OF_ASC_NODE": 314.4234, "ARG_OF_PERICENTER": 136.0042, "MEAN_ANOMALY": 224.9481, "EPHEMERIS_TYPE": 0, "CLASSIFICATION_TYPE": "U", "NORAD_CAT_ID": 32143, "ELEMENT_SET_NO": 999, "REV_AT_EPOCH": 95798, "BSTAR": 0.00020859227, "MEAN_MOTION_DOT": 4.09e-06, "MEAN_MOTION_DDOT": 0}, "tle": {"line1": "1 32143U 99025CSM 25337.18646231  .00000409  00000+0  20859-3 0  9998", "line2": "2 32143  98.5963 314.4234 0104123 136.0042 224.9481 14.17959367957983"}}, "geometry": {"type": "Point", "coordinates": [166.0216932981992, 70.31918135305972]}}, {"type": "Feature", "properties": {"norad_id": 32150, "name": "FENGYUN 1C DEB", "group": "fengyun-1c-debris", "lat": -56.429038633041884, "lon": 172.4057012165903, "alt_km": 813.1351332584627, "timestamp": "2025-12-09T23:33:24.140627+00:00", "meta": {"OBJECT_NAME": "FENGYUN 1C DEB", "OBJECT_ID": "1999-025CSU", "EPOCH": "2025-12-05T08:19:59.789856", "MEAN_MOTION": 14.60648055, "ECCENTRICITY": 0.01718442, "INCLINATION": 99.1916, "RA_OF_ASC_NODE": 1.3864, "ARG_OF_PERICENTER": 89.9667, "MEAN_ANOMALY": 272.1222, "EPHEMERIS_TYPE": 0, "CLASSIFICATION_TYPE": "U", "NORAD_CAT_ID": 32150, "ELEMENT_SET_NO": 999, "REV_AT_EPOCH": 97598, "BSTAR": 0.00021099285, "MEAN_MOTION_DOT": 1.198e-05, "MEAN_MOTION_DDOT": 0}, "tle": {"line1": "1 32150U 99025CSU 25339.34721979  .00001198  00000+0  21099-3 0  9992", "line2": "2 32150  99.1916   1.3864 0171844  89.9667 272.1222 14.60648055975985"}}, "geometry": {"type": "Point", "coordinates": [172.4057012165903, -56.429038633041884]}}, {"type": "Feature", "properties": {"norad_id": 32152, "name": "FENGYUN 1C DEB", "group": "fengyun-1c-debris", "lat": 72.54455327273341, "lon": -5.648856787982801, "alt_km": 706.735567136956, "timestamp": "2025-12-09T23:33:24.140639+00:00", "meta": {"OBJECT_NAME": "FENGYUN 1C DEB", "OBJECT_ID": "1999-025CSW", "EPOCH": "2025-12-08T17:23:47.343264", "MEAN_MOTION": 14.56605031, "ECCENTRICITY": 0.00551964, "INCLINATION": 98.761, "RA_OF_ASC_NODE": 143.6623, "ARG_OF_PERICENTER": 213.6072, "MEAN_ANOMALY": 146.162, "EPHEMERIS_TYPE": 0, "CLASSIFICATION_TYPE": "U", "NORAD_CAT_ID": 32152, "ELEMENT_SET_NO": 999, "REV_AT_EPOCH": 62554, "BSTAR": 0.0029018103, "MEAN_MOTION_DOT": 0.00013176, "MEAN_MOTION_DDOT": 0}, "tle": {"line1": "1 32152U 99025CSW 25342.72485351  .00013176  00000+0  29018-2 0  9998", "line2": "2 32152  98.7610 143.6623 0055196 213.6072 146.1620 14.56605031625541"}}, "geometry": {"type": "Point", "coordinates": [-5.648856787982801, 72.54455327273341]}}, {"type": "Feature", "properties": {"norad_id": 32153, "name": "FENGYUN 1C DEB", "group": "fengyun-1c-debris", "lat": 27.067818982092543, "lon": 11.326186568940736, "alt_km": 693.159101403945, "timestamp": "2025-12-09T23:33:24.140652+00:00", "meta": {"OBJECT_NAME": "FENGYUN 1C DEB", "OBJECT_ID": "1999-025CSX", "EPOCH": "2025-12-08T07:03:10.270368", "MEAN_MOTION": 14.48698922, "ECCENTRICITY": 0.0207063, "INCLINATION": 98.7675, "RA_OF_ASC_NODE": 185.0499, "ARG_OF_PERICENTER": 234.7199, "MEAN_ANOMALY": 123.4469, "EPHEMERIS_TYPE": 0, "CLASSIFICATION_TYPE": "U", "NORAD_CAT_ID": 32153, "ELEMENT_SET_NO": 999, "REV_AT_EPOCH": 97159, "BSTAR": 0.00055146558, "MEAN_MOTION_DOT": 2.668e-05, "MEAN_MOTION_DDOT": 0}, "tle": {"line1": "1 32153U 99025CSX 25342.29386887  .00002668  00000+0  55147-3 0  9992", "line2": "2 32153  98.7675 185.0499 0207063 234.7199 123.4469 14.48698922971590"}}, "geometry": {"type": "Point", "coordinates": [11.326186568940736, 27.067818982092543]}}]}